{
"type": "FeatureCollection",
"name": "sensors_clusters_kmeans_flat",
"crs": { "type": "name", "properties": { "name": "urn:ogc:def:crs:OGC:1.3:CRS84" } },
"features": [
{ "type": "Feature", "properties": { "name": "T1", "field_1": "T1", "Latitude": "45.4202195725692", "Longitude": "11.879352349788", "District": "Quartiere 2 Nord", "Sensor model": "Milesight EM300-TH", "Time reslution": "10 min", "Measuring start date": "2024-02-05T00:00:00", "Location_Type": "street", "cluster": 2 }, "geometry": { "type": "Point", "coordinates": [ 11.879352349788, 45.420219572569202 ] } },
{ "type": "Feature", "properties": { "name": "T100", "field_1": "T100", "Latitude": "45.414175464584", "Longitude": "11.8845967389643", "District": "Quartiere 1 Centro", "Sensor model": "Milesight EM300-TH", "Time reslution": "10 min", "Measuring start date": "2024-02-06T00:00:00", "Location_Type": "parking", "cluster": 1 }, "geometry": { "type": "Point", "coordinates": [ 11.8845967389643, 45.414175464583998 ] } },
{ "type": "Feature", "properties": { "name": "T101", "field_1": "T101", "Latitude": "45.4032795542709", "Longitude": "11.869933437556", "District": "Quartiere 1 Centro", "Sensor model": "Milesight EM300-TH", "Time reslution": "10 min", "Measuring start date": "2024-02-05T00:00:00", "Location_Type": "park", "cluster": 1 }, "geometry": { "type": "Point", "coordinates": [ 11.869933437556, 45.403279554270902 ] } },
{ "type": "Feature", "properties": { "name": "T102", "field_1": "T102", "Latitude": "45.4131704", "Longitude": "11.8771224", "District": "Quartiere 1 Centro", "Sensor model": "Milesight EM300-TH", "Time reslution": "10 min", "Measuring start date": "2024-02-06T00:00:00", "Location_Type": "parking", "cluster": 0 }, "geometry": { "type": "Point", "coordinates": [ 11.8771224, 45.4131704 ] } },
{ "type": "Feature", "properties": { "name": "T103", "field_1": "T103", "Latitude": "45.4097953271624", "Longitude": "11.8831570632756", "District": "Quartiere 1 Centro", "Sensor model": "Milesight EM300-TH", "Time reslution": "10 min", "Measuring start date": "2024-02-06T00:00:00", "Location_Type": "park", "cluster": 1 }, "geometry": { "type": "Point", "coordinates": [ 11.883157063275601, 45.409795327162399 ] } },
{ "type": "Feature", "properties": { "name": "T110", "field_1": "T110", "Latitude": "45.4276469", "Longitude": "11.8930568", "District": "Quartiere 2 Nord", "Sensor model": "Milesight EM300-TH", "Time reslution": "10 min", "Measuring start date": "2024-02-05T00:00:00", "Location_Type": "parking", "cluster": 2 }, "geometry": { "type": "Point", "coordinates": [ 11.8930568, 45.4276469 ] } },
{ "type": "Feature", "properties": { "name": "T114", "field_1": "T114", "Latitude": "45.423336", "Longitude": "11.8964503", "District": "Quartiere 2 Nord", "Sensor model": "Milesight EM300-TH", "Time reslution": "10 min", "Measuring start date": "2024-02-06T00:00:00", "Location_Type": "park", "cluster": 1 }, "geometry": { "type": "Point", "coordinates": [ 11.8964503, 45.423336 ] } },
{ "type": "Feature", "properties": { "name": "T116", "field_1": "T116", "Latitude": "45.4236581", "Longitude": "11.8763804", "District": "Quartiere 2 Nord", "Sensor model": "Milesight EM300-TH", "Time reslution": "10 min", "Measuring start date": "2024-02-06T00:00:00", "Location_Type": "square", "cluster": 0 }, "geometry": { "type": "Point", "coordinates": [ 11.8763804, 45.4236581 ] } },
{ "type": "Feature", "properties": { "name": "T16", "field_1": "T16", "Latitude": "45.4246135000689", "Longitude": "11.9061161018908", "District": "Quartiere 2 Nord", "Sensor model": "Milesight EM300-TH", "Time reslution": "10 min", "Measuring start date": "2024-02-06T00:00:00", "Location_Type": "street", "cluster": 2 }, "geometry": { "type": "Point", "coordinates": [ 11.906116101890801, 45.424613500068901 ] } },
{ "type": "Feature", "properties": { "name": "T17", "field_1": "T17", "Latitude": "45.4260493236976", "Longitude": "11.9059293530881", "District": "Quartiere 2 Nord", "Sensor model": "Milesight EM300-TH", "Time reslution": "10 min", "Measuring start date": "2024-02-05T00:00:00", "Location_Type": "parking", "cluster": 1 }, "geometry": { "type": "Point", "coordinates": [ 11.9059293530881, 45.426049323697598 ] } },
{ "type": "Feature", "properties": { "name": "T2", "field_1": "T2", "Latitude": "45.4224949404594", "Longitude": "11.8831825442612", "District": "Quartiere 2 Nord", "Sensor model": "Milesight EM300-TH", "Time reslution": "10 min", "Measuring start date": "2024-02-06T00:00:00", "Location_Type": "street", "cluster": 0 }, "geometry": { "type": "Point", "coordinates": [ 11.883182544261199, 45.422494940459401 ] } },
{ "type": "Feature", "properties": { "name": "T21", "field_1": "T21", "Latitude": "45.4109726645994", "Longitude": "11.9277454353869", "District": "Quartiere 3 Est", "Sensor model": "Milesight EM300-TH", "Time reslution": "10 min", "Measuring start date": "2024-02-05T00:00:00", "Location_Type": "street", "cluster": 0 }, "geometry": { "type": "Point", "coordinates": [ 11.9277454353869, 45.410972664599399 ] } },
{ "type": "Feature", "properties": { "name": "T27", "field_1": "T27", "Latitude": "45.4080893154239", "Longitude": "11.8979182653129", "District": "Quartiere 3 Est", "Sensor model": "Milesight EM300-TH", "Time reslution": "10 min", "Measuring start date": "2024-02-06T00:00:00", "Location_Type": "street", "cluster": 1 }, "geometry": { "type": "Point", "coordinates": [ 11.897918265312899, 45.408089315423901 ] } },
{ "type": "Feature", "properties": { "name": "T30", "field_1": "T30", "Latitude": "45.3978215143082", "Longitude": "11.9383344613016", "District": "Quartiere 3 Est", "Sensor model": "Milesight EM300-TH", "Time reslution": "10 min", "Measuring start date": "2024-02-05T00:00:00", "Location_Type": "street", "cluster": 2 }, "geometry": { "type": "Point", "coordinates": [ 11.938334461301601, 45.397821514308198 ] } },
{ "type": "Feature", "properties": { "name": "T32", "field_1": "T32", "Latitude": "45.393581599646", "Longitude": "11.9367030076683", "District": "Quartiere 3 Est", "Sensor model": "Milesight EM300-TH", "Time reslution": "10 min", "Measuring start date": "2024-02-06T00:00:00", "Location_Type": "street", "cluster": 0 }, "geometry": { "type": "Point", "coordinates": [ 11.936703007668299, 45.393581599645998 ] } },
{ "type": "Feature", "properties": { "name": "T33", "field_1": "T33", "Latitude": "45.3893024", "Longitude": "11.9431797", "District": "Quartiere 3 Est", "Sensor model": "Milesight EM300-TH", "Time reslution": "10 min", "Measuring start date": "2024-02-05T00:00:00", "Location_Type": "street", "cluster": 2 }, "geometry": { "type": "Point", "coordinates": [ 11.9431797, 45.3893024 ] } },
{ "type": "Feature", "properties": { "name": "T35", "field_1": "T35", "Latitude": "45.3796878", "Longitude": "11.9028481", "District": "Quartiere 4 Sud-Est", "Sensor model": "Milesight EM300-TH", "Time reslution": "10 min", "Measuring start date": "2024-02-05T00:00:00", "Location_Type": "parking", "cluster": 0 }, "geometry": { "type": "Point", "coordinates": [ 11.9028481, 45.3796878 ] } },
{ "type": "Feature", "properties": { "name": "T40", "field_1": "T40", "Latitude": "45.3998560133026", "Longitude": "11.8975970707834", "District": "Quartiere 3 Est", "Sensor model": "Milesight EM300-TH", "Time reslution": "10 min", "Measuring start date": "2024-02-06T00:00:00", "Location_Type": "park", "cluster": 1 }, "geometry": { "type": "Point", "coordinates": [ 11.8975970707834, 45.399856013302603 ] } },
{ "type": "Feature", "properties": { "name": "T41", "field_1": "T41", "Latitude": "45.3988912", "Longitude": "11.8954551", "District": "Quartiere 3 Est", "Sensor model": "Milesight EM300-TH", "Time reslution": "10 min", "Measuring start date": "2024-02-05T00:00:00", "Location_Type": "street", "cluster": 0 }, "geometry": { "type": "Point", "coordinates": [ 11.8954551, 45.3988912 ] } },
{ "type": "Feature", "properties": { "name": "T43", "field_1": "T43", "Latitude": "45.3926826753336", "Longitude": "11.8914226256311", "District": "Quartiere 4 Sud-Est", "Sensor model": "Milesight EM300-TH", "Time reslution": "10 min", "Measuring start date": "2024-02-05T00:00:00", "Location_Type": "street", "cluster": 1 }, "geometry": { "type": "Point", "coordinates": [ 11.891422625631099, 45.392682675333603 ] } },
{ "type": "Feature", "properties": { "name": "T51", "field_1": "T51", "Latitude": "45.4291607", "Longitude": "11.8930053", "District": "Quartiere 4 Sud-Est", "Sensor model": "Milesight EM300-TH", "Time reslution": "10 min", "Measuring start date": "2024-02-05T00:00:00", "Location_Type": "park", "cluster": 2 }, "geometry": { "type": "Point", "coordinates": [ 11.8930053, 45.4291607 ] } },
{ "type": "Feature", "properties": { "name": "T57", "field_1": "T57", "Latitude": "45.3935663", "Longitude": "11.860204", "District": "Quartiere 5 Sud-Ovest", "Sensor model": "Milesight EM300-TH", "Time reslution": "10 min", "Measuring start date": "2024-02-06T00:00:00", "Location_Type": "street", "cluster": 2 }, "geometry": { "type": "Point", "coordinates": [ 11.860204, 45.3935663 ] } },
{ "type": "Feature", "properties": { "name": "T59", "field_1": "T59", "Latitude": "45.3980446962786", "Longitude": "11.859879847616", "District": "Quartiere 5 Sud-Ovest", "Sensor model": "Milesight EM300-TH", "Time reslution": "10 min", "Measuring start date": "2024-02-05T00:00:00", "Location_Type": "park", "cluster": 1 }, "geometry": { "type": "Point", "coordinates": [ 11.859879847616, 45.398044696278603 ] } },
{ "type": "Feature", "properties": { "name": "T65", "field_1": "T65", "Latitude": "45.4046940713648", "Longitude": "11.8547752685845", "District": "Quartiere 5 Sud-Ovest", "Sensor model": "Milesight EM300-TH", "Time reslution": "10 min", "Measuring start date": "2024-02-06T00:00:00", "Location_Type": "street", "cluster": 0 }, "geometry": { "type": "Point", "coordinates": [ 11.8547752685845, 45.404694071364801 ] } },
{ "type": "Feature", "properties": { "name": "T66", "field_1": "T66", "Latitude": "45.416795", "Longitude": "11.8548318", "District": "Quartiere 5 Sud-Ovest", "Sensor model": "Milesight EM300-TH", "Time reslution": "10 min", "Measuring start date": "2024-02-06T00:00:00", "Location_Type": "parking", "cluster": 2 }, "geometry": { "type": "Point", "coordinates": [ 11.8548318, 45.416795 ] } },
{ "type": "Feature", "properties": { "name": "T67", "field_1": "T67", "Latitude": "45.4451305", "Longitude": "11.8715244", "District": "Quartiere 6 Ovest", "Sensor model": "Milesight EM300-TH", "Time reslution": "10 min", "Measuring start date": "2024-02-05T00:00:00", "Location_Type": "park", "cluster": 1 }, "geometry": { "type": "Point", "coordinates": [ 11.8715244, 45.4451305 ] } },
{ "type": "Feature", "properties": { "name": "T71", "field_1": "T71", "Latitude": "45.4140547426206", "Longitude": "11.8736479617655", "District": "Quartiere 1 Centro", "Sensor model": "Milesight EM300-TH", "Time reslution": "10 min", "Measuring start date": "2024-02-06T00:00:00", "Location_Type": "park", "cluster": 1 }, "geometry": { "type": "Point", "coordinates": [ 11.873647961765499, 45.4140547426206 ] } },
{ "type": "Feature", "properties": { "name": "T73", "field_1": "T73", "Latitude": "45.417455072248", "Longitude": "11.8790586479008", "District": "Quartiere 1 Centro", "Sensor model": "Milesight EM300-TH", "Time reslution": "10 min", "Measuring start date": "2024-02-06T00:00:00", "Location_Type": "parking", "cluster": 2 }, "geometry": { "type": "Point", "coordinates": [ 11.8790586479008, 45.417455072248003 ] } },
{ "type": "Feature", "properties": { "name": "T74", "field_1": "T74", "Latitude": "45.4171792502607", "Longitude": "11.8755898810923", "District": "Quartiere 1 Centro", "Sensor model": "Milesight EM300-TH", "Time reslution": "10 min", "Measuring start date": "2024-02-05T00:00:00", "Location_Type": "street", "cluster": 1 }, "geometry": { "type": "Point", "coordinates": [ 11.875589881092299, 45.417179250260702 ] } },
{ "type": "Feature", "properties": { "name": "T75", "field_1": "T75", "Latitude": "45.417230791075", "Longitude": "11.8769822828472", "District": "Quartiere 1 Centro", "Sensor model": "Milesight EM300-TH", "Time reslution": "10 min", "Measuring start date": "2024-02-06T00:00:00", "Location_Type": "parking", "cluster": 0 }, "geometry": { "type": "Point", "coordinates": [ 11.8769822828472, 45.417230791074999 ] } },
{ "type": "Feature", "properties": { "name": "T76", "field_1": "T76", "Latitude": "45.4179396408214", "Longitude": "11.8728402815759", "District": "Quartiere 1 Centro", "Sensor model": "Milesight EM300-TH", "Time reslution": "10 min", "Measuring start date": "2024-02-05T00:00:00", "Location_Type": "street", "cluster": 2 }, "geometry": { "type": "Point", "coordinates": [ 11.8728402815759, 45.417939640821402 ] } },
{ "type": "Feature", "properties": { "name": "T8", "field_1": "T8", "Latitude": "45.4386192077901", "Longitude": "11.8894622661173", "District": "Quartiere 2 Nord", "Sensor model": "Milesight EM300-TH", "Time reslution": "10 min", "Measuring start date": "2024-02-05T00:00:00", "Location_Type": "parking", "cluster": 1 }, "geometry": { "type": "Point", "coordinates": [ 11.889462266117301, 45.438619207790097 ] } },
{ "type": "Feature", "properties": { "name": "T80", "field_1": "T80", "Latitude": "45.3948732197477", "Longitude": "11.8655570782721", "District": "Quartiere 5 Sud-Ovest", "Sensor model": "Milesight EM300-TH", "Time reslution": "10 min", "Measuring start date": "2024-02-06T00:00:00", "Location_Type": "street", "cluster": 2 }, "geometry": { "type": "Point", "coordinates": [ 11.865557078272101, 45.394873219747701 ] } },
{ "type": "Feature", "properties": { "name": "T88", "field_1": "T88", "Latitude": "45.4080123450803", "Longitude": "11.8720178492367", "District": "Quartiere 1 Centro", "Sensor model": "Milesight EM300-TH", "Time reslution": "10 min", "Measuring start date": "2024-02-06T00:00:00", "Location_Type": "park", "cluster": 1 }, "geometry": { "type": "Point", "coordinates": [ 11.8720178492367, 45.408012345080301 ] } },
{ "type": "Feature", "properties": { "name": "T90", "field_1": "T90", "Latitude": "45.3856428831695", "Longitude": "11.8772233463824", "District": "Quartiere 4 Sud-Est", "Sensor model": "Milesight EM300-TH", "Time reslution": "10 min", "Measuring start date": "2024-02-05T00:00:00", "Location_Type": "river", "cluster": 1 }, "geometry": { "type": "Point", "coordinates": [ 11.877223346382401, 45.385642883169503 ] } },
{ "type": "Feature", "properties": { "name": "T93", "field_1": "T93", "Latitude": "45.4164595584004", "Longitude": "11.8672586046159", "District": "Quartiere 1 Centro", "Sensor model": "Milesight EM300-TH", "Time reslution": "10 min", "Measuring start date": "2024-02-06T00:00:00", "Location_Type": "street", "cluster": 2 }, "geometry": { "type": "Point", "coordinates": [ 11.8672586046159, 45.416459558400398 ] } },
{ "type": "Feature", "properties": { "name": "T95", "field_1": "T95", "Latitude": "45.3993169020045", "Longitude": "11.8762812204659", "District": "Quartiere 1 Centro", "Sensor model": "Milesight EM300-TH", "Time reslution": "10 min", "Measuring start date": "2024-02-06T00:00:00", "Location_Type": "park", "cluster": 2 }, "geometry": { "type": "Point", "coordinates": [ 11.8762812204659, 45.3993169020045 ] } },
{ "type": "Feature", "properties": { "name": "T96", "field_1": "T96", "Latitude": "45.4111582", "Longitude": "11.8786289", "District": "Quartiere 1 Centro", "Sensor model": "Milesight EM300-TH", "Time reslution": "10 min", "Measuring start date": "2024-02-06T00:00:00", "Location_Type": "park", "cluster": 2 }, "geometry": { "type": "Point", "coordinates": [ 11.8786289, 45.4111582 ] } },
{ "type": "Feature", "properties": { "name": "T97", "field_1": "T97", "Latitude": "45.4143804593629", "Longitude": "11.8791485019028", "District": "Quartiere 1 Centro", "Sensor model": "Milesight EM300-TH", "Time reslution": "10 min", "Measuring start date": "2024-02-06T00:00:00", "Location_Type": "street", "cluster": 1 }, "geometry": { "type": "Point", "coordinates": [ 11.879148501902799, 45.414380459362903 ] } },
{ "type": "Feature", "properties": { "name": "T99", "field_1": "T99", "Latitude": "45.4148577", "Longitude": "11.8848875", "District": "Quartiere 1 Centro", "Sensor model": "Milesight EM300-TH", "Time reslution": "10 min", "Measuring start date": "2024-02-06T00:00:00", "Location_Type": null, "cluster": 1 }, "geometry": { "type": "Point", "coordinates": [ 11.8848875, 45.4148577 ] } }
]
}
