{
"type": "FeatureCollection",
"name": "sensors_location_cluster_label",
"crs": { "type": "name", "properties": { "name": "urn:ogc:def:crs:OGC:1.3:CRS84" } },
"features": [
{ "type": "Feature", "properties": { "name": "T1", "sensor_id": "T1", "Latitude": "45.4202195725692", "Longitude": "11.879352349788", "District": "Quartiere 2 Nord", "Sensor model": "Milesight EM300-TH", "Time reslution": "10 min", "Measuring start date": "2024-02-05T00:00:00", "euclidean": 1.0, "softdtw": 2.0, "kshape": 0.0, "hierarchical": 1.0 }, "geometry": { "type": "Point", "coordinates": [ 11.879352349788, 45.420219572569202 ] } },
{ "type": "Feature", "properties": { "name": "T100", "sensor_id": "T100", "Latitude": "45.414175464584", "Longitude": "11.8845967389643", "District": "Quartiere 1 Centro", "Sensor model": "Milesight EM300-TH", "Time reslution": "10 min", "Measuring start date": "2024-02-06T00:00:00", "euclidean": 1.0, "softdtw": 0.0, "kshape": 3.0, "hierarchical": 1.0 }, "geometry": { "type": "Point", "coordinates": [ 11.8845967389643, 45.414175464583998 ] } },
{ "type": "Feature", "properties": { "name": "T101", "sensor_id": "T101", "Latitude": "45.4032795542709", "Longitude": "11.869933437556", "District": "Quartiere 1 Centro", "Sensor model": "Milesight EM300-TH", "Time reslution": "10 min", "Measuring start date": "2024-02-05T00:00:00", "euclidean": 1.0, "softdtw": 0.0, "kshape": 3.0, "hierarchical": 1.0 }, "geometry": { "type": "Point", "coordinates": [ 11.869933437556, 45.403279554270902 ] } },
{ "type": "Feature", "properties": { "name": "T102", "sensor_id": "T102", "Latitude": "45.4131704", "Longitude": "11.8771224", "District": "Quartiere 1 Centro", "Sensor model": "Milesight EM300-TH", "Time reslution": "10 min", "Measuring start date": "2024-02-06T00:00:00", "euclidean": 3.0, "softdtw": 3.0, "kshape": 2.0, "hierarchical": 2.0 }, "geometry": { "type": "Point", "coordinates": [ 11.8771224, 45.4131704 ] } },
{ "type": "Feature", "properties": { "name": "T103", "sensor_id": "T103", "Latitude": "45.4097953271624", "Longitude": "11.8831570632756", "District": "Quartiere 1 Centro", "Sensor model": "Milesight EM300-TH", "Time reslution": "10 min", "Measuring start date": "2024-02-06T00:00:00", "euclidean": 1.0, "softdtw": 0.0, "kshape": 3.0, "hierarchical": 1.0 }, "geometry": { "type": "Point", "coordinates": [ 11.883157063275601, 45.409795327162399 ] } },
{ "type": "Feature", "properties": { "name": "T104", "sensor_id": "T104", "Latitude": "45.4099691260685", "Longitude": "11.9137278757989", "District": "Quartiere 3 Est", "Sensor model": "Milesight EM300-TH", "Time reslution": "10 min", "Measuring start date": "2024-02-06T00:00:00", "euclidean": 2.0, "softdtw": 1.0, "kshape": 3.0, "hierarchical": 0.0 }, "geometry": { "type": "Point", "coordinates": [ 11.9137278757989, 45.409969126068503 ] } },
{ "type": "Feature", "properties": { "name": "T105", "sensor_id": "T105", "Latitude": "45.3989651591789", "Longitude": "11.87482663838", "District": "Quartiere 1 Centro", "Sensor model": "Milesight EM300-TH", "Time reslution": "10 min", "Measuring start date": "2024-02-06T00:00:00", "euclidean": null, "softdtw": null, "kshape": null, "hierarchical": null }, "geometry": { "type": "Point", "coordinates": [ 11.87482663838, 45.3989651591789 ] } },
{ "type": "Feature", "properties": { "name": "T106", "sensor_id": "T106", "Latitude": "45.3991563402276", "Longitude": "11.8738678947453", "District": "Quartiere 1 Centro", "Sensor model": "Milesight EM300-TH", "Time reslution": "10 min", "Measuring start date": "2024-02-05T00:00:00", "euclidean": null, "softdtw": null, "kshape": null, "hierarchical": null }, "geometry": { "type": "Point", "coordinates": [ 11.873867894745301, 45.399156340227599 ] } },
{ "type": "Feature", "properties": { "name": "T107", "sensor_id": "T107", "Latitude": "45.4069928751696", "Longitude": "11.8762359399372", "District": "Quartiere 1 Centro", "Sensor model": "Milesight EM300-TH", "Time reslution": "10 min", "Measuring start date": "2024-02-06T00:00:00", "euclidean": null, "softdtw": null, "kshape": null, "hierarchical": null }, "geometry": { "type": "Point", "coordinates": [ 11.8762359399372, 45.4069928751696 ] } },
{ "type": "Feature", "properties": { "name": "T108", "sensor_id": "T108", "Latitude": "45.4072179859067", "Longitude": "11.8771087900509", "District": "Quartiere 1 Centro", "Sensor model": "Milesight EM300-TH", "Time reslution": "10 min", "Measuring start date": "2024-02-06T00:00:00", "euclidean": null, "softdtw": null, "kshape": null, "hierarchical": null }, "geometry": { "type": "Point", "coordinates": [ 11.877108790050899, 45.407217985906698 ] } },
{ "type": "Feature", "properties": { "name": "T109", "sensor_id": "T109", "Latitude": "45.417522162434", "Longitude": "11.8775566213476", "District": "Quartiere 1 Centro", "Sensor model": "Milesight EM300-TH", "Time reslution": "10 min", "Measuring start date": "2024-02-06T00:00:00", "euclidean": 3.0, "softdtw": 2.0, "kshape": 2.0, "hierarchical": 1.0 }, "geometry": { "type": "Point", "coordinates": [ 11.877556621347599, 45.417522162433997 ] } },
{ "type": "Feature", "properties": { "name": "T11", "sensor_id": "T11", "Latitude": "45.435376", "Longitude": "11.8881058", "District": "Quartiere 2 Nord", "Sensor model": "Milesight EM300-TH", "Time reslution": "10 min", "Measuring start date": "2024-02-05T00:00:00", "euclidean": 0.0, "softdtw": 1.0, "kshape": 0.0, "hierarchical": 0.0 }, "geometry": { "type": "Point", "coordinates": [ 11.8881058, 45.435376 ] } },
{ "type": "Feature", "properties": { "name": "T110", "sensor_id": "T110", "Latitude": "45.4276469", "Longitude": "11.8930568", "District": "Quartiere 2 Nord", "Sensor model": "Milesight EM300-TH", "Time reslution": "10 min", "Measuring start date": "2024-02-05T00:00:00", "euclidean": 1.0, "softdtw": 2.0, "kshape": 0.0, "hierarchical": 2.0 }, "geometry": { "type": "Point", "coordinates": [ 11.8930568, 45.4276469 ] } },
{ "type": "Feature", "properties": { "name": "T111", "sensor_id": "T111", "Latitude": "45.4297920053633", "Longitude": "11.8983470834792", "District": "Quartiere 2 Nord", "Sensor model": "Milesight EM300-TH", "Time reslution": "10 min", "Measuring start date": "2024-02-06T00:00:00", "euclidean": null, "softdtw": null, "kshape": null, "hierarchical": null }, "geometry": { "type": "Point", "coordinates": [ 11.8983470834792, 45.429792005363304 ] } },
{ "type": "Feature", "properties": { "name": "T112", "sensor_id": "T112", "Latitude": "45.4217912", "Longitude": "11.8919671", "District": "Quartiere 2 Nord", "Sensor model": "Milesight EM300-TH", "Time reslution": "10 min", "Measuring start date": "2024-02-06T00:00:00", "euclidean": null, "softdtw": null, "kshape": null, "hierarchical": null }, "geometry": { "type": "Point", "coordinates": [ 11.8919671, 45.4217912 ] } },
{ "type": "Feature", "properties": { "name": "T113", "sensor_id": "T113", "Latitude": "45.4232129", "Longitude": "11.9006867", "District": "Quartiere 2 Nord", "Sensor model": "Milesight EM300-TH", "Time reslution": "10 min", "Measuring start date": "2024-02-05T00:00:00", "euclidean": 2.0, "softdtw": 1.0, "kshape": 0.0, "hierarchical": 0.0 }, "geometry": { "type": "Point", "coordinates": [ 11.9006867, 45.4232129 ] } },
{ "type": "Feature", "properties": { "name": "T114", "sensor_id": "T114", "Latitude": "45.423336", "Longitude": "11.8964503", "District": "Quartiere 2 Nord", "Sensor model": "Milesight EM300-TH", "Time reslution": "10 min", "Measuring start date": "2024-02-06T00:00:00", "euclidean": 1.0, "softdtw": 0.0, "kshape": 3.0, "hierarchical": 1.0 }, "geometry": { "type": "Point", "coordinates": [ 11.8964503, 45.423336 ] } },
{ "type": "Feature", "properties": { "name": "T115", "sensor_id": "T115", "Latitude": "45.4265008", "Longitude": "11.8723706", "District": "Quartiere 2 Nord", "Sensor model": "Milesight EM300-TH", "Time reslution": "10 min", "Measuring start date": "2024-02-06T00:00:00", "euclidean": 0.0, "softdtw": 1.0, "kshape": 2.0, "hierarchical": 3.0 }, "geometry": { "type": "Point", "coordinates": [ 11.8723706, 45.4265008 ] } },
{ "type": "Feature", "properties": { "name": "T116", "sensor_id": "T116", "Latitude": "45.4236581", "Longitude": "11.8763804", "District": "Quartiere 2 Nord", "Sensor model": "Milesight EM300-TH", "Time reslution": "10 min", "Measuring start date": "2024-02-06T00:00:00", "euclidean": 3.0, "softdtw": 3.0, "kshape": 0.0, "hierarchical": 0.0 }, "geometry": { "type": "Point", "coordinates": [ 11.8763804, 45.4236581 ] } },
{ "type": "Feature", "properties": { "name": "T117", "sensor_id": "T117", "Latitude": "45.4308755", "Longitude": "11.8967518", "District": "Quartiere 2 Nord", "Sensor model": "Milesight EM300-TH", "Time reslution": "10 min", "Measuring start date": "2024-02-06T00:00:00", "euclidean": 1.0, "softdtw": 2.0, "kshape": 0.0, "hierarchical": 1.0 }, "geometry": { "type": "Point", "coordinates": [ 11.8967518, 45.4308755 ] } },
{ "type": "Feature", "properties": { "name": "T118", "sensor_id": "T118", "Latitude": "45.4170189", "Longitude": "11.8763751", "District": "Quartiere 1 Centro", "Sensor model": "Milesight EM300-TH", "Time reslution": "10 min", "Measuring start date": "2024-02-06T00:00:00", "euclidean": null, "softdtw": null, "kshape": null, "hierarchical": null }, "geometry": { "type": "Point", "coordinates": [ 11.8763751, 45.4170189 ] } },
{ "type": "Feature", "properties": { "name": "T119", "sensor_id": "T119", "Latitude": "45.4170189", "Longitude": "11.8763751", "District": "Quartiere 1 Centro", "Sensor model": "Milesight EM300-TH", "Time reslution": "10 min", "Measuring start date": "2024-02-06T00:00:00", "euclidean": null, "softdtw": null, "kshape": null, "hierarchical": null }, "geometry": { "type": "Point", "coordinates": [ 11.8763751, 45.4170189 ] } },
{ "type": "Feature", "properties": { "name": "T12", "sensor_id": "T12", "Latitude": "45.4294884947284", "Longitude": "11.8872085399926", "District": "Quartiere 2 Nord", "Sensor model": "Milesight EM300-TH", "Time reslution": "10 min", "Measuring start date": "2024-02-05T00:00:00", "euclidean": 3.0, "softdtw": 3.0, "kshape": 0.0, "hierarchical": 0.0 }, "geometry": { "type": "Point", "coordinates": [ 11.887208539992599, 45.429488494728403 ] } },
{ "type": "Feature", "properties": { "name": "T120", "sensor_id": "T120", "Latitude": "45.4170189", "Longitude": "11.8763751", "District": "Quartiere 1 Centro", "Sensor model": "Milesight EM300-TH", "Time reslution": "10 min", "Measuring start date": "2024-02-06T00:00:00", "euclidean": null, "softdtw": null, "kshape": null, "hierarchical": null }, "geometry": { "type": "Point", "coordinates": [ 11.8763751, 45.4170189 ] } },
{ "type": "Feature", "properties": { "name": "T13", "sensor_id": "T13", "Latitude": "45.4286616719844", "Longitude": "11.8864400871098", "District": "Quartiere 2 Nord", "Sensor model": "Milesight EM300-TH", "Time reslution": "10 min", "Measuring start date": "2024-02-06T00:00:00", "euclidean": 3.0, "softdtw": 2.0, "kshape": 0.0, "hierarchical": 1.0 }, "geometry": { "type": "Point", "coordinates": [ 11.886440087109801, 45.428661671984401 ] } },
{ "type": "Feature", "properties": { "name": "T14", "sensor_id": "T14", "Latitude": "45.4184564461904", "Longitude": "11.8888128362596", "District": "Quartiere 2 Nord", "Sensor model": "Milesight EM300-TH", "Time reslution": "10 min", "Measuring start date": "2024-02-05T00:00:00", "euclidean": 3.0, "softdtw": 3.0, "kshape": 0.0, "hierarchical": 0.0 }, "geometry": { "type": "Point", "coordinates": [ 11.8888128362596, 45.418456446190397 ] } },
{ "type": "Feature", "properties": { "name": "T15", "sensor_id": "T15", "Latitude": "45.4210128668706", "Longitude": "11.8903725408018", "District": "Quartiere 2 Nord", "Sensor model": "Milesight EM300-TH", "Time reslution": "10 min", "Measuring start date": "2024-02-06T00:00:00", "euclidean": null, "softdtw": null, "kshape": null, "hierarchical": null }, "geometry": { "type": "Point", "coordinates": [ 11.890372540801801, 45.421012866870598 ] } },
{ "type": "Feature", "properties": { "name": "T16", "sensor_id": "T16", "Latitude": "45.4246135000689", "Longitude": "11.9061161018908", "District": "Quartiere 2 Nord", "Sensor model": "Milesight EM300-TH", "Time reslution": "10 min", "Measuring start date": "2024-02-06T00:00:00", "euclidean": 3.0, "softdtw": 3.0, "kshape": 0.0, "hierarchical": 0.0 }, "geometry": { "type": "Point", "coordinates": [ 11.906116101890801, 45.424613500068901 ] } },
{ "type": "Feature", "properties": { "name": "T17", "sensor_id": "T17", "Latitude": "45.4260493236976", "Longitude": "11.9059293530881", "District": "Quartiere 2 Nord", "Sensor model": "Milesight EM300-TH", "Time reslution": "10 min", "Measuring start date": "2024-02-05T00:00:00", "euclidean": 2.0, "softdtw": 1.0, "kshape": 2.0, "hierarchical": 0.0 }, "geometry": { "type": "Point", "coordinates": [ 11.9059293530881, 45.426049323697598 ] } },
{ "type": "Feature", "properties": { "name": "T18", "sensor_id": "T18", "Latitude": "45.42658573539", "Longitude": "11.9061291776597", "District": "Quartiere 2 Nord", "Sensor model": "Milesight EM300-TH", "Time reslution": "10 min", "Measuring start date": "2024-02-05T00:00:00", "euclidean": null, "softdtw": null, "kshape": null, "hierarchical": null }, "geometry": { "type": "Point", "coordinates": [ 11.9061291776597, 45.426585735389999 ] } },
{ "type": "Feature", "properties": { "name": "T19", "sensor_id": "T19", "Latitude": "45.3994826432942", "Longitude": "11.8773376755416", "District": "Quartiere 1 Centro", "Sensor model": "Milesight EM300-TH", "Time reslution": "10 min", "Measuring start date": "2024-02-05T00:00:00", "euclidean": null, "softdtw": null, "kshape": null, "hierarchical": null }, "geometry": { "type": "Point", "coordinates": [ 11.8773376755416, 45.399482643294199 ] } },
{ "type": "Feature", "properties": { "name": "T2", "sensor_id": "T2", "Latitude": "45.4224949404594", "Longitude": "11.8831825442612", "District": "Quartiere 2 Nord", "Sensor model": "Milesight EM300-TH", "Time reslution": "10 min", "Measuring start date": "2024-02-06T00:00:00", "euclidean": 3.0, "softdtw": 3.0, "kshape": 2.0, "hierarchical": 0.0 }, "geometry": { "type": "Point", "coordinates": [ 11.883182544261199, 45.422494940459401 ] } },
{ "type": "Feature", "properties": { "name": "T20", "sensor_id": "T20", "Latitude": "45.3978815474733", "Longitude": "11.8745518662035", "District": "Quartiere 1 Centro", "Sensor model": "Milesight EM300-TH", "Time reslution": "10 min", "Measuring start date": "2024-02-05T00:00:00", "euclidean": 2.0, "softdtw": 3.0, "kshape": 3.0, "hierarchical": 2.0 }, "geometry": { "type": "Point", "coordinates": [ 11.8745518662035, 45.397881547473297 ] } },
{ "type": "Feature", "properties": { "name": "T21", "sensor_id": "T21", "Latitude": "45.4109726645994", "Longitude": "11.9277454353869", "District": "Quartiere 3 Est", "Sensor model": "Milesight EM300-TH", "Time reslution": "10 min", "Measuring start date": "2024-02-05T00:00:00", "euclidean": 2.0, "softdtw": 2.0, "kshape": 0.0, "hierarchical": 0.0 }, "geometry": { "type": "Point", "coordinates": [ 11.9277454353869, 45.410972664599399 ] } },
{ "type": "Feature", "properties": { "name": "T22", "sensor_id": "T22", "Latitude": "45.4249831749058", "Longitude": "11.9463096745312", "District": "Quartiere 3 Est", "Sensor model": "Milesight EM300-TH", "Time reslution": "10 min", "Measuring start date": "2024-02-06T00:00:00", "euclidean": null, "softdtw": null, "kshape": null, "hierarchical": null }, "geometry": { "type": "Point", "coordinates": [ 11.9463096745312, 45.424983174905798 ] } },
{ "type": "Feature", "properties": { "name": "T23", "sensor_id": "T23", "Latitude": "45.4229521687837", "Longitude": "11.935803797096", "District": "Quartiere 3 Est", "Sensor model": "Milesight EM300-TH", "Time reslution": "10 min", "Measuring start date": "2024-02-06T00:00:00", "euclidean": 2.0, "softdtw": 2.0, "kshape": 3.0, "hierarchical": 0.0 }, "geometry": { "type": "Point", "coordinates": [ 11.935803797096, 45.422952168783702 ] } },
{ "type": "Feature", "properties": { "name": "T24", "sensor_id": "T24", "Latitude": "45.4159669825325", "Longitude": "11.9145600311458", "District": "Quartiere 3 Est", "Sensor model": "Milesight EM300-TH", "Time reslution": "10 min", "Measuring start date": "2024-02-05T00:00:00", "euclidean": 2.0, "softdtw": 1.0, "kshape": 0.0, "hierarchical": 0.0 }, "geometry": { "type": "Point", "coordinates": [ 11.9145600311458, 45.415966982532503 ] } },
{ "type": "Feature", "properties": { "name": "T25", "sensor_id": "T25", "Latitude": "45.4096035039911", "Longitude": "11.9042254798114", "District": "Quartiere 3 Est", "Sensor model": "Milesight EM300-TH", "Time reslution": "10 min", "Measuring start date": "2024-02-05T00:00:00", "euclidean": null, "softdtw": null, "kshape": null, "hierarchical": null }, "geometry": { "type": "Point", "coordinates": [ 11.9042254798114, 45.4096035039911 ] } },
{ "type": "Feature", "properties": { "name": "T26", "sensor_id": "T26", "Latitude": "45.4118049241707", "Longitude": "11.8979142419994", "District": "Quartiere 3 Est", "Sensor model": "Milesight EM300-TH", "Time reslution": "10 min", "Measuring start date": "2024-02-06T00:00:00", "euclidean": 2.0, "softdtw": 1.0, "kshape": 3.0, "hierarchical": 0.0 }, "geometry": { "type": "Point", "coordinates": [ 11.8979142419994, 45.411804924170703 ] } },
{ "type": "Feature", "properties": { "name": "T27", "sensor_id": "T27", "Latitude": "45.4080893154239", "Longitude": "11.8979182653129", "District": "Quartiere 3 Est", "Sensor model": "Milesight EM300-TH", "Time reslution": "10 min", "Measuring start date": "2024-02-06T00:00:00", "euclidean": 2.0, "softdtw": 3.0, "kshape": 3.0, "hierarchical": 2.0 }, "geometry": { "type": "Point", "coordinates": [ 11.897918265312899, 45.408089315423901 ] } },
{ "type": "Feature", "properties": { "name": "T28", "sensor_id": "T28", "Latitude": "45.4033287598061", "Longitude": "11.9116441346705", "District": "Quartiere 3 Est", "Sensor model": "Milesight EM300-TH", "Time reslution": "10 min", "Measuring start date": "2024-02-05T00:00:00", "euclidean": 2.0, "softdtw": 1.0, "kshape": 3.0, "hierarchical": 0.0 }, "geometry": { "type": "Point", "coordinates": [ 11.9116441346705, 45.403328759806101 ] } },
{ "type": "Feature", "properties": { "name": "T29", "sensor_id": "T29", "Latitude": "45.3970994629768", "Longitude": "11.9093739800155", "District": "Quartiere 3 Est", "Sensor model": "Milesight EM300-TH", "Time reslution": "10 min", "Measuring start date": "2024-02-05T00:00:00", "euclidean": 2.0, "softdtw": 1.0, "kshape": 0.0, "hierarchical": 2.0 }, "geometry": { "type": "Point", "coordinates": [ 11.9093739800155, 45.397099462976797 ] } },
{ "type": "Feature", "properties": { "name": "T3", "sensor_id": "T3", "Latitude": "45.4240854555923", "Longitude": "11.8847268261015", "District": "Quartiere 2 Nord", "Sensor model": "Milesight EM300-TH", "Time reslution": "10 min", "Measuring start date": "2024-02-06T00:00:00", "euclidean": 1.0, "softdtw": 2.0, "kshape": 0.0, "hierarchical": 1.0 }, "geometry": { "type": "Point", "coordinates": [ 11.884726826101501, 45.424085455592298 ] } },
{ "type": "Feature", "properties": { "name": "T30", "sensor_id": "T30", "Latitude": "45.3978215143082", "Longitude": "11.9383344613016", "District": "Quartiere 3 Est", "Sensor model": "Milesight EM300-TH", "Time reslution": "10 min", "Measuring start date": "2024-02-05T00:00:00", "euclidean": 2.0, "softdtw": 1.0, "kshape": 3.0, "hierarchical": 0.0 }, "geometry": { "type": "Point", "coordinates": [ 11.938334461301601, 45.397821514308198 ] } },
{ "type": "Feature", "properties": { "name": "T31", "sensor_id": "T31", "Latitude": "45.3977727808744", "Longitude": "11.9451633654535", "District": "Quartiere 3 Est", "Sensor model": "Milesight EM300-TH", "Time reslution": "10 min", "Measuring start date": "2024-02-06T00:00:00", "euclidean": null, "softdtw": null, "kshape": null, "hierarchical": null }, "geometry": { "type": "Point", "coordinates": [ 11.945163365453499, 45.397772780874398 ] } },
{ "type": "Feature", "properties": { "name": "T32", "sensor_id": "T32", "Latitude": "45.393581599646", "Longitude": "11.9367030076683", "District": "Quartiere 3 Est", "Sensor model": "Milesight EM300-TH", "Time reslution": "10 min", "Measuring start date": "2024-02-06T00:00:00", "euclidean": 2.0, "softdtw": 3.0, "kshape": 2.0, "hierarchical": 2.0 }, "geometry": { "type": "Point", "coordinates": [ 11.936703007668299, 45.393581599645998 ] } },
{ "type": "Feature", "properties": { "name": "T33", "sensor_id": "T33", "Latitude": "45.3893024", "Longitude": "11.9431797", "District": "Quartiere 3 Est", "Sensor model": "Milesight EM300-TH", "Time reslution": "10 min", "Measuring start date": "2024-02-05T00:00:00", "euclidean": 2.0, "softdtw": 2.0, "kshape": 3.0, "hierarchical": 2.0 }, "geometry": { "type": "Point", "coordinates": [ 11.9431797, 45.3893024 ] } },
{ "type": "Feature", "properties": { "name": "T34", "sensor_id": "T34", "Latitude": "45.3871685054586", "Longitude": "11.9318710081279", "District": "Quartiere 3 Est", "Sensor model": "Milesight EM300-TH", "Time reslution": "10 min", "Measuring start date": "2024-02-06T00:00:00", "euclidean": 2.0, "softdtw": 2.0, "kshape": 3.0, "hierarchical": 2.0 }, "geometry": { "type": "Point", "coordinates": [ 11.931871008127899, 45.387168505458597 ] } },
{ "type": "Feature", "properties": { "name": "T35", "sensor_id": "T35", "Latitude": "45.3796878", "Longitude": "11.9028481", "District": "Quartiere 4 Sud-Est", "Sensor model": "Milesight EM300-TH", "Time reslution": "10 min", "Measuring start date": "2024-02-05T00:00:00", "euclidean": 2.0, "softdtw": 1.0, "kshape": 3.0, "hierarchical": 2.0 }, "geometry": { "type": "Point", "coordinates": [ 11.9028481, 45.3796878 ] } },
{ "type": "Feature", "properties": { "name": "T36", "sensor_id": "T36", "Latitude": "45.3827455", "Longitude": "11.898337", "District": "Quartiere 4 Sud-Est", "Sensor model": "Milesight EM300-TH", "Time reslution": "10 min", "Measuring start date": "2024-02-05T00:00:00", "euclidean": 0.0, "softdtw": 1.0, "kshape": 3.0, "hierarchical": 3.0 }, "geometry": { "type": "Point", "coordinates": [ 11.898337, 45.3827455 ] } },
{ "type": "Feature", "properties": { "name": "T37", "sensor_id": "T37", "Latitude": "45.3790961", "Longitude": "11.8934839", "District": "Quartiere 4 Sud-Est", "Sensor model": "Milesight EM300-TH", "Time reslution": "10 min", "Measuring start date": "2024-02-05T00:00:00", "euclidean": 0.0, "softdtw": 1.0, "kshape": 3.0, "hierarchical": 3.0 }, "geometry": { "type": "Point", "coordinates": [ 11.8934839, 45.3790961 ] } },
{ "type": "Feature", "properties": { "name": "T38", "sensor_id": "T38", "Latitude": "45.3910983", "Longitude": "11.8960912", "District": "Quartiere 4 Sud-Est", "Sensor model": "Milesight EM300-TH", "Time reslution": "10 min", "Measuring start date": "2024-02-05T00:00:00", "euclidean": null, "softdtw": null, "kshape": null, "hierarchical": null }, "geometry": { "type": "Point", "coordinates": [ 11.8960912, 45.3910983 ] } },
{ "type": "Feature", "properties": { "name": "T39", "sensor_id": "T39", "Latitude": "45.3919662102999", "Longitude": "11.8989609740674", "District": "Quartiere 3 Est", "Sensor model": "Milesight EM300-TH", "Time reslution": "10 min", "Measuring start date": "2024-02-06T00:00:00", "euclidean": 2.0, "softdtw": 1.0, "kshape": 3.0, "hierarchical": 2.0 }, "geometry": { "type": "Point", "coordinates": [ 11.8989609740674, 45.391966210299898 ] } },
{ "type": "Feature", "properties": { "name": "T4", "sensor_id": "T4", "Latitude": "45.4276931871228", "Longitude": "11.8873275630176", "District": "Quartiere 2 Nord", "Sensor model": "Milesight EM300-TH", "Time reslution": "10 min", "Measuring start date": "2024-02-05T00:00:00", "euclidean": 1.0, "softdtw": 2.0, "kshape": 0.0, "hierarchical": 1.0 }, "geometry": { "type": "Point", "coordinates": [ 11.8873275630176, 45.427693187122799 ] } },
{ "type": "Feature", "properties": { "name": "T40", "sensor_id": "T40", "Latitude": "45.3998560133026", "Longitude": "11.8975970707834", "District": "Quartiere 3 Est", "Sensor model": "Milesight EM300-TH", "Time reslution": "10 min", "Measuring start date": "2024-02-06T00:00:00", "euclidean": 2.0, "softdtw": 0.0, "kshape": 3.0, "hierarchical": 2.0 }, "geometry": { "type": "Point", "coordinates": [ 11.8975970707834, 45.399856013302603 ] } },
{ "type": "Feature", "properties": { "name": "T41", "sensor_id": "T41", "Latitude": "45.3988912", "Longitude": "11.8954551", "District": "Quartiere 3 Est", "Sensor model": "Milesight EM300-TH", "Time reslution": "10 min", "Measuring start date": "2024-02-05T00:00:00", "euclidean": 2.0, "softdtw": 3.0, "kshape": 3.0, "hierarchical": 2.0 }, "geometry": { "type": "Point", "coordinates": [ 11.8954551, 45.3988912 ] } },
{ "type": "Feature", "properties": { "name": "T42", "sensor_id": "T42", "Latitude": "45.4047583343263", "Longitude": "11.8898770026863", "District": "Quartiere 1 Centro", "Sensor model": "Milesight EM300-TH", "Time reslution": "10 min", "Measuring start date": "2024-02-05T00:00:00", "euclidean": 1.0, "softdtw": 0.0, "kshape": 3.0, "hierarchical": 1.0 }, "geometry": { "type": "Point", "coordinates": [ 11.889877002686299, 45.404758334326303 ] } },
{ "type": "Feature", "properties": { "name": "T43", "sensor_id": "T43", "Latitude": "45.3926826753336", "Longitude": "11.8914226256311", "District": "Quartiere 4 Sud-Est", "Sensor model": "Milesight EM300-TH", "Time reslution": "10 min", "Measuring start date": "2024-02-05T00:00:00", "euclidean": 3.0, "softdtw": 3.0, "kshape": 3.0, "hierarchical": 2.0 }, "geometry": { "type": "Point", "coordinates": [ 11.891422625631099, 45.392682675333603 ] } },
{ "type": "Feature", "properties": { "name": "T44", "sensor_id": "T44", "Latitude": "45.4027331914127", "Longitude": "11.8885623849928", "District": "Quartiere 1 Centro", "Sensor model": "Milesight EM300-TH", "Time reslution": "10 min", "Measuring start date": "2024-02-06T00:00:00", "euclidean": 1.0, "softdtw": 2.0, "kshape": 3.0, "hierarchical": 1.0 }, "geometry": { "type": "Point", "coordinates": [ 11.888562384992801, 45.4027331914127 ] } },
{ "type": "Feature", "properties": { "name": "T45", "sensor_id": "T45", "Latitude": "45.3676523204809", "Longitude": "11.8743553943932", "District": "Quartiere 4 Sud-Est", "Sensor model": "Milesight EM300-TH", "Time reslution": "10 min", "Measuring start date": "2024-02-05T00:00:00", "euclidean": 0.0, "softdtw": 1.0, "kshape": 3.0, "hierarchical": 3.0 }, "geometry": { "type": "Point", "coordinates": [ 11.8743553943932, 45.3676523204809 ] } },
{ "type": "Feature", "properties": { "name": "T46", "sensor_id": "T46", "Latitude": "45.3742515759384", "Longitude": "11.8706174008548", "District": "Quartiere 4 Sud-Est", "Sensor model": "Milesight EM300-TH", "Time reslution": "10 min", "Measuring start date": "2024-02-05T00:00:00", "euclidean": null, "softdtw": null, "kshape": null, "hierarchical": null }, "geometry": { "type": "Point", "coordinates": [ 11.870617400854799, 45.374251575938402 ] } },
{ "type": "Feature", "properties": { "name": "T47", "sensor_id": "T47", "Latitude": "45.380168296599", "Longitude": "11.869439240545", "District": "Quartiere 4 Sud-Est", "Sensor model": "Milesight EM300-TH", "Time reslution": "10 min", "Measuring start date": "2024-02-05T00:00:00", "euclidean": 0.0, "softdtw": 1.0, "kshape": 3.0, "hierarchical": 2.0 }, "geometry": { "type": "Point", "coordinates": [ 11.869439240545001, 45.380168296599003 ] } },
{ "type": "Feature", "properties": { "name": "T48", "sensor_id": "T48", "Latitude": "45.3832042517615", "Longitude": "11.8660690449178", "District": "Quartiere 4 Sud-Est", "Sensor model": "Milesight EM300-TH", "Time reslution": "10 min", "Measuring start date": "2024-02-05T00:00:00", "euclidean": 0.0, "softdtw": 1.0, "kshape": 2.0, "hierarchical": 2.0 }, "geometry": { "type": "Point", "coordinates": [ 11.866069044917801, 45.383204251761498 ] } },
{ "type": "Feature", "properties": { "name": "T49", "sensor_id": "T49", "Latitude": "45.3813107", "Longitude": "11.8732315", "District": "Quartiere 4 Sud-Est", "Sensor model": "Milesight EM300-TH", "Time reslution": "10 min", "Measuring start date": "2024-02-06T00:00:00", "euclidean": 0.0, "softdtw": 1.0, "kshape": 3.0, "hierarchical": 3.0 }, "geometry": { "type": "Point", "coordinates": [ 11.8732315, 45.3813107 ] } },
{ "type": "Feature", "properties": { "name": "T5", "sensor_id": "T5", "Latitude": "45.4300731937489", "Longitude": "11.8887256644666", "District": "Quartiere 2 Nord", "Sensor model": "Milesight EM300-TH", "Time reslution": "10 min", "Measuring start date": "2024-02-05T00:00:00", "euclidean": 1.0, "softdtw": 2.0, "kshape": 3.0, "hierarchical": 1.0 }, "geometry": { "type": "Point", "coordinates": [ 11.8887256644666, 45.430073193748903 ] } },
{ "type": "Feature", "properties": { "name": "T50", "sensor_id": "T50", "Latitude": "45.3817830811628", "Longitude": "11.8721154145896", "District": "Quartiere 4 Sud-Est", "Sensor model": "Milesight EM300-TH", "Time reslution": "10 min", "Measuring start date": "2024-02-06T00:00:00", "euclidean": 0.0, "softdtw": 1.0, "kshape": 3.0, "hierarchical": 3.0 }, "geometry": { "type": "Point", "coordinates": [ 11.872115414589601, 45.381783081162801 ] } },
{ "type": "Feature", "properties": { "name": "T51", "sensor_id": "T51", "Latitude": "45.4291607", "Longitude": "11.8930053", "District": "Quartiere 4 Sud-Est", "Sensor model": "Milesight EM300-TH", "Time reslution": "10 min", "Measuring start date": "2024-02-05T00:00:00", "euclidean": 1.0, "softdtw": 0.0, "kshape": 0.0, "hierarchical": 1.0 }, "geometry": { "type": "Point", "coordinates": [ 11.8930053, 45.4291607 ] } },
{ "type": "Feature", "properties": { "name": "T52", "sensor_id": "T52", "Latitude": "45.4100843", "Longitude": "11.8639929", "District": "Quartiere 4 Sud-Est", "Sensor model": "Milesight EM300-TH", "Time reslution": "10 min", "Measuring start date": "2024-02-05T00:00:00", "euclidean": null, "softdtw": null, "kshape": null, "hierarchical": null }, "geometry": { "type": "Point", "coordinates": [ 11.8639929, 45.4100843 ] } },
{ "type": "Feature", "properties": { "name": "T53", "sensor_id": "T53", "Latitude": "45.3686892056926", "Longitude": "11.8275863863528", "District": "Quartiere 5 Sud-Ovest", "Sensor model": "Milesight EM300-TH", "Time reslution": "10 min", "Measuring start date": "2024-02-05T00:00:00", "euclidean": 0.0, "softdtw": 1.0, "kshape": 3.0, "hierarchical": 3.0 }, "geometry": { "type": "Point", "coordinates": [ 11.827586386352801, 45.368689205692597 ] } },
{ "type": "Feature", "properties": { "name": "T54", "sensor_id": "T54", "Latitude": "45.3693609771188", "Longitude": "11.8300141207874", "District": "Quartiere 5 Sud-Ovest", "Sensor model": "Milesight EM300-TH", "Time reslution": "10 min", "Measuring start date": "2024-02-06T00:00:00", "euclidean": 0.0, "softdtw": 1.0, "kshape": 3.0, "hierarchical": 2.0 }, "geometry": { "type": "Point", "coordinates": [ 11.8300141207874, 45.369360977118802 ] } },
{ "type": "Feature", "properties": { "name": "T55", "sensor_id": "T55", "Latitude": "45.3824619978106", "Longitude": "11.8469442240894", "District": "Quartiere 5 Sud-Ovest", "Sensor model": "Milesight EM300-TH", "Time reslution": "10 min", "Measuring start date": "2024-02-05T00:00:00", "euclidean": 0.0, "softdtw": 1.0, "kshape": 3.0, "hierarchical": 3.0 }, "geometry": { "type": "Point", "coordinates": [ 11.8469442240894, 45.382461997810601 ] } },
{ "type": "Feature", "properties": { "name": "T56", "sensor_id": "T56", "Latitude": "45.3923464579959", "Longitude": "11.8636061064899", "District": "Quartiere 5 Sud-Ovest", "Sensor model": "Milesight EM300-TH", "Time reslution": "10 min", "Measuring start date": "2024-02-06T00:00:00", "euclidean": 0.0, "softdtw": 1.0, "kshape": 0.0, "hierarchical": 3.0 }, "geometry": { "type": "Point", "coordinates": [ 11.8636061064899, 45.392346457995899 ] } },
{ "type": "Feature", "properties": { "name": "T57", "sensor_id": "T57", "Latitude": "45.3935663", "Longitude": "11.860204", "District": "Quartiere 5 Sud-Ovest", "Sensor model": "Milesight EM300-TH", "Time reslution": "10 min", "Measuring start date": "2024-02-06T00:00:00", "euclidean": 0.0, "softdtw": 1.0, "kshape": 3.0, "hierarchical": 2.0 }, "geometry": { "type": "Point", "coordinates": [ 11.860204, 45.3935663 ] } },
{ "type": "Feature", "properties": { "name": "T58", "sensor_id": "T58", "Latitude": "45.3906149539199", "Longitude": "11.8553707189858", "District": "Quartiere 5 Sud-Ovest", "Sensor model": "Milesight EM300-TH", "Time reslution": "10 min", "Measuring start date": "2024-02-06T00:00:00", "euclidean": null, "softdtw": null, "kshape": null, "hierarchical": null }, "geometry": { "type": "Point", "coordinates": [ 11.8553707189858, 45.390614953919901 ] } },
{ "type": "Feature", "properties": { "name": "T59", "sensor_id": "T59", "Latitude": "45.3980446962786", "Longitude": "11.859879847616", "District": "Quartiere 5 Sud-Ovest", "Sensor model": "Milesight EM300-TH", "Time reslution": "10 min", "Measuring start date": "2024-02-05T00:00:00", "euclidean": 3.0, "softdtw": 3.0, "kshape": 3.0, "hierarchical": 2.0 }, "geometry": { "type": "Point", "coordinates": [ 11.859879847616, 45.398044696278603 ] } },
{ "type": "Feature", "properties": { "name": "T6", "sensor_id": "T6", "Latitude": "45.4341393255147", "Longitude": "11.8905488960445", "District": "Quartiere 2 Nord", "Sensor model": "Milesight EM300-TH", "Time reslution": "10 min", "Measuring start date": "2024-02-06T00:00:00", "euclidean": null, "softdtw": null, "kshape": null, "hierarchical": null }, "geometry": { "type": "Point", "coordinates": [ 11.8905488960445, 45.4341393255147 ] } },
{ "type": "Feature", "properties": { "name": "T60", "sensor_id": "T60", "Latitude": "45.3985920520106", "Longitude": "11.8419700674713", "District": "Quartiere 6 Ovest", "Sensor model": "Milesight EM300-TH", "Time reslution": "10 min", "Measuring start date": "2024-02-06T00:00:00", "euclidean": 0.0, "softdtw": 1.0, "kshape": 0.0, "hierarchical": 2.0 }, "geometry": { "type": "Point", "coordinates": [ 11.8419700674713, 45.398592052010599 ] } },
{ "type": "Feature", "properties": { "name": "T61", "sensor_id": "T61", "Latitude": "45.4144237805861", "Longitude": "11.8304073996842", "District": "Quartiere 6 Ovest", "Sensor model": "Milesight EM300-TH", "Time reslution": "10 min", "Measuring start date": "2024-02-06T00:00:00", "euclidean": null, "softdtw": null, "kshape": null, "hierarchical": null }, "geometry": { "type": "Point", "coordinates": [ 11.8304073996842, 45.414423780586098 ] } },
{ "type": "Feature", "properties": { "name": "T62", "sensor_id": "T62", "Latitude": "45.4095919525092", "Longitude": "11.8381549604237", "District": "Quartiere 6 Ovest", "Sensor model": "Milesight EM300-TH", "Time reslution": "10 min", "Measuring start date": "2024-02-06T00:00:00", "euclidean": 1.0, "softdtw": 1.0, "kshape": 3.0, "hierarchical": 2.0 }, "geometry": { "type": "Point", "coordinates": [ 11.838154960423701, 45.409591952509203 ] } },
{ "type": "Feature", "properties": { "name": "T63", "sensor_id": "T63", "Latitude": "45.4288501440879", "Longitude": "11.8561361543834", "District": "Quartiere 6 Ovest", "Sensor model": "Milesight EM300-TH", "Time reslution": "10 min", "Measuring start date": "2024-02-06T00:00:00", "euclidean": null, "softdtw": null, "kshape": null, "hierarchical": null }, "geometry": { "type": "Point", "coordinates": [ 11.8561361543834, 45.428850144087903 ] } },
{ "type": "Feature", "properties": { "name": "T64", "sensor_id": "T64", "Latitude": "45.431628202254", "Longitude": "11.839001532644", "District": "Quartiere 6 Ovest", "Sensor model": "Milesight EM300-TH", "Time reslution": "10 min", "Measuring start date": "2024-02-05T00:00:00", "euclidean": null, "softdtw": null, "kshape": null, "hierarchical": null }, "geometry": { "type": "Point", "coordinates": [ 11.839001532644, 45.431628202253997 ] } },
{ "type": "Feature", "properties": { "name": "T65", "sensor_id": "T65", "Latitude": "45.4046940713648", "Longitude": "11.8547752685845", "District": "Quartiere 5 Sud-Ovest", "Sensor model": "Milesight EM300-TH", "Time reslution": "10 min", "Measuring start date": "2024-02-06T00:00:00", "euclidean": 3.0, "softdtw": 3.0, "kshape": 3.0, "hierarchical": 2.0 }, "geometry": { "type": "Point", "coordinates": [ 11.8547752685845, 45.404694071364801 ] } },
{ "type": "Feature", "properties": { "name": "T66", "sensor_id": "T66", "Latitude": "45.416795", "Longitude": "11.8548318", "District": "Quartiere 5 Sud-Ovest", "Sensor model": "Milesight EM300-TH", "Time reslution": "10 min", "Measuring start date": "2024-02-06T00:00:00", "euclidean": 3.0, "softdtw": 1.0, "kshape": 2.0, "hierarchical": 0.0 }, "geometry": { "type": "Point", "coordinates": [ 11.8548318, 45.416795 ] } },
{ "type": "Feature", "properties": { "name": "T67", "sensor_id": "T67", "Latitude": "45.4451305", "Longitude": "11.8715244", "District": "Quartiere 6 Ovest", "Sensor model": "Milesight EM300-TH", "Time reslution": "10 min", "Measuring start date": "2024-02-05T00:00:00", "euclidean": 1.0, "softdtw": 2.0, "kshape": 2.0, "hierarchical": 1.0 }, "geometry": { "type": "Point", "coordinates": [ 11.8715244, 45.4451305 ] } },
{ "type": "Feature", "properties": { "name": "T68", "sensor_id": "T68", "Latitude": "45.4465867", "Longitude": "11.8697767", "District": "Quartiere 6 Ovest", "Sensor model": "Milesight EM300-TH", "Time reslution": "10 min", "Measuring start date": "2024-02-06T00:00:00", "euclidean": 0.0, "softdtw": 1.0, "kshape": 2.0, "hierarchical": 0.0 }, "geometry": { "type": "Point", "coordinates": [ 11.8697767, 45.4465867 ] } },
{ "type": "Feature", "properties": { "name": "T69", "sensor_id": "T69", "Latitude": "45.4438076", "Longitude": "11.8999642", "District": "Quartiere 3 Est", "Sensor model": "Milesight EM300-TH", "Time reslution": "10 min", "Measuring start date": "2024-02-06T00:00:00", "euclidean": null, "softdtw": null, "kshape": null, "hierarchical": null }, "geometry": { "type": "Point", "coordinates": [ 11.8999642, 45.4438076 ] } },
{ "type": "Feature", "properties": { "name": "T7", "sensor_id": "T7", "Latitude": "45.4370281665307", "Longitude": "11.8911782093346", "District": "Quartiere 2 Nord", "Sensor model": "Milesight EM300-TH", "Time reslution": "10 min", "Measuring start date": "2024-02-06T00:00:00", "euclidean": null, "softdtw": null, "kshape": null, "hierarchical": null }, "geometry": { "type": "Point", "coordinates": [ 11.891178209334599, 45.437028166530702 ] } },
{ "type": "Feature", "properties": { "name": "T70", "sensor_id": "T70", "Latitude": "45.4143734145433", "Longitude": "11.8745263852179", "District": "Quartiere 1 Centro", "Sensor model": "Milesight EM300-TH", "Time reslution": "10 min", "Measuring start date": "2024-02-06T00:00:00", "euclidean": 1.0, "softdtw": 3.0, "kshape": 0.0, "hierarchical": 1.0 }, "geometry": { "type": "Point", "coordinates": [ 11.8745263852179, 45.414373414543299 ] } },
{ "type": "Feature", "properties": { "name": "T71", "sensor_id": "T71", "Latitude": "45.4140547426206", "Longitude": "11.8736479617655", "District": "Quartiere 1 Centro", "Sensor model": "Milesight EM300-TH", "Time reslution": "10 min", "Measuring start date": "2024-02-06T00:00:00", "euclidean": 1.0, "softdtw": 0.0, "kshape": 2.0, "hierarchical": 1.0 }, "geometry": { "type": "Point", "coordinates": [ 11.873647961765499, 45.4140547426206 ] } },
{ "type": "Feature", "properties": { "name": "T72", "sensor_id": "T72", "Latitude": "45.4148185", "Longitude": "11.8771099", "District": "Quartiere 1 Centro", "Sensor model": "Milesight EM300-TH", "Time reslution": "10 min", "Measuring start date": "2024-02-05T00:00:00", "euclidean": 1.0, "softdtw": 3.0, "kshape": 2.0, "hierarchical": 1.0 }, "geometry": { "type": "Point", "coordinates": [ 11.8771099, 45.4148185 ] } },
{ "type": "Feature", "properties": { "name": "T73", "sensor_id": "T73", "Latitude": "45.417455072248", "Longitude": "11.8790586479008", "District": "Quartiere 1 Centro", "Sensor model": "Milesight EM300-TH", "Time reslution": "10 min", "Measuring start date": "2024-02-06T00:00:00", "euclidean": 3.0, "softdtw": 3.0, "kshape": 2.0, "hierarchical": 1.0 }, "geometry": { "type": "Point", "coordinates": [ 11.8790586479008, 45.417455072248003 ] } },
{ "type": "Feature", "properties": { "name": "T74", "sensor_id": "T74", "Latitude": "45.4171792502607", "Longitude": "11.8755898810923", "District": "Quartiere 1 Centro", "Sensor model": "Milesight EM300-TH", "Time reslution": "10 min", "Measuring start date": "2024-02-05T00:00:00", "euclidean": 1.0, "softdtw": 3.0, "kshape": 2.0, "hierarchical": 1.0 }, "geometry": { "type": "Point", "coordinates": [ 11.875589881092299, 45.417179250260702 ] } },
{ "type": "Feature", "properties": { "name": "T75", "sensor_id": "T75", "Latitude": "45.417230791075", "Longitude": "11.8769822828472", "District": "Quartiere 1 Centro", "Sensor model": "Milesight EM300-TH", "Time reslution": "10 min", "Measuring start date": "2024-02-06T00:00:00", "euclidean": 3.0, "softdtw": 3.0, "kshape": 2.0, "hierarchical": 0.0 }, "geometry": { "type": "Point", "coordinates": [ 11.8769822828472, 45.417230791074999 ] } },
{ "type": "Feature", "properties": { "name": "T76", "sensor_id": "T76", "Latitude": "45.4179396408214", "Longitude": "11.8728402815759", "District": "Quartiere 1 Centro", "Sensor model": "Milesight EM300-TH", "Time reslution": "10 min", "Measuring start date": "2024-02-05T00:00:00", "euclidean": 1.0, "softdtw": 0.0, "kshape": 2.0, "hierarchical": 1.0 }, "geometry": { "type": "Point", "coordinates": [ 11.8728402815759, 45.417939640821402 ] } },
{ "type": "Feature", "properties": { "name": "T77", "sensor_id": "T77", "Latitude": "45.3870924490631", "Longitude": "11.8675603531301", "District": "Quartiere 4 Sud-Est", "Sensor model": "Milesight EM300-TH", "Time reslution": "10 min", "Measuring start date": "2024-02-06T00:00:00", "euclidean": 1.0, "softdtw": 2.0, "kshape": 3.0, "hierarchical": 2.0 }, "geometry": { "type": "Point", "coordinates": [ 11.8675603531301, 45.387092449063097 ] } },
{ "type": "Feature", "properties": { "name": "T78", "sensor_id": "T78", "Latitude": "45.3896615921715", "Longitude": "11.8699931167066", "District": "Quartiere 4 Sud-Est", "Sensor model": "Milesight EM300-TH", "Time reslution": "10 min", "Measuring start date": "2024-02-06T00:00:00", "euclidean": null, "softdtw": null, "kshape": null, "hierarchical": null }, "geometry": { "type": "Point", "coordinates": [ 11.869993116706601, 45.3896615921715 ] } },
{ "type": "Feature", "properties": { "name": "T79", "sensor_id": "T79", "Latitude": "45.3922347", "Longitude": "11.8711322", "District": "Quartiere 4 Sud-Est", "Sensor model": "Milesight EM300-TH", "Time reslution": "10 min", "Measuring start date": "2024-02-06T00:00:00", "euclidean": null, "softdtw": null, "kshape": null, "hierarchical": null }, "geometry": { "type": "Point", "coordinates": [ 11.8711322, 45.3922347 ] } },
{ "type": "Feature", "properties": { "name": "T8", "sensor_id": "T8", "Latitude": "45.4386192077901", "Longitude": "11.8894622661173", "District": "Quartiere 2 Nord", "Sensor model": "Milesight EM300-TH", "Time reslution": "10 min", "Measuring start date": "2024-02-05T00:00:00", "euclidean": 3.0, "softdtw": 3.0, "kshape": 2.0, "hierarchical": 0.0 }, "geometry": { "type": "Point", "coordinates": [ 11.889462266117301, 45.438619207790097 ] } },
{ "type": "Feature", "properties": { "name": "T80", "sensor_id": "T80", "Latitude": "45.3948732197477", "Longitude": "11.8655570782721", "District": "Quartiere 5 Sud-Ovest", "Sensor model": "Milesight EM300-TH", "Time reslution": "10 min", "Measuring start date": "2024-02-06T00:00:00", "euclidean": 1.0, "softdtw": 2.0, "kshape": 3.0, "hierarchical": 2.0 }, "geometry": { "type": "Point", "coordinates": [ 11.865557078272101, 45.394873219747701 ] } },
{ "type": "Feature", "properties": { "name": "T81", "sensor_id": "T81", "Latitude": "45.4014669409697", "Longitude": "11.879571955651", "District": "Quartiere 1 Centro", "Sensor model": "Milesight EM300-TH", "Time reslution": "10 min", "Measuring start date": "2024-02-05T00:00:00", "euclidean": 3.0, "softdtw": 3.0, "kshape": 3.0, "hierarchical": 2.0 }, "geometry": { "type": "Point", "coordinates": [ 11.879571955651, 45.401466940969698 ] } },
{ "type": "Feature", "properties": { "name": "T82", "sensor_id": "T82", "Latitude": "45.4008663", "Longitude": "11.8776452", "District": "Quartiere 1 Centro", "Sensor model": "Milesight EM300-TH", "Time reslution": "10 min", "Measuring start date": "2024-02-05T00:00:00", "euclidean": null, "softdtw": null, "kshape": null, "hierarchical": null }, "geometry": { "type": "Point", "coordinates": [ 11.8776452, 45.4008663 ] } },
{ "type": "Feature", "properties": { "name": "T83", "sensor_id": "T83", "Latitude": "45.4049805465229", "Longitude": "11.8770396150649", "District": "Quartiere 1 Centro", "Sensor model": "Milesight EM300-TH", "Time reslution": "10 min", "Measuring start date": "2024-02-06T00:00:00", "euclidean": null, "softdtw": null, "kshape": null, "hierarchical": null }, "geometry": { "type": "Point", "coordinates": [ 11.8770396150649, 45.4049805465229 ] } },
{ "type": "Feature", "properties": { "name": "T84", "sensor_id": "T84", "Latitude": "45.409198892695", "Longitude": "11.8756509013474", "District": "Quartiere 1 Centro", "Sensor model": "Milesight EM300-TH", "Time reslution": "10 min", "Measuring start date": "2024-02-05T00:00:00", "euclidean": 1.0, "softdtw": 0.0, "kshape": 3.0, "hierarchical": 1.0 }, "geometry": { "type": "Point", "coordinates": [ 11.875650901347401, 45.409198892695002 ] } },
{ "type": "Feature", "properties": { "name": "T85", "sensor_id": "T85", "Latitude": "45.4076044232066", "Longitude": "11.8759469501674", "District": "Quartiere 1 Centro", "Sensor model": "Milesight EM300-TH", "Time reslution": "10 min", "Measuring start date": "2024-02-05T00:00:00", "euclidean": null, "softdtw": null, "kshape": null, "hierarchical": null }, "geometry": { "type": "Point", "coordinates": [ 11.8759469501674, 45.4076044232066 ] } },
{ "type": "Feature", "properties": { "name": "T86", "sensor_id": "T86", "Latitude": "45.4067059617253", "Longitude": "11.8758597783744", "District": "Quartiere 1 Centro", "Sensor model": "Milesight EM300-TH", "Time reslution": "10 min", "Measuring start date": "2024-02-05T00:00:00", "euclidean": 1.0, "softdtw": 0.0, "kshape": 3.0, "hierarchical": 1.0 }, "geometry": { "type": "Point", "coordinates": [ 11.8758597783744, 45.406705961725301 ] } },
{ "type": "Feature", "properties": { "name": "T87", "sensor_id": "T87", "Latitude": "45.4078195670817", "Longitude": "11.8731923215091", "District": "Quartiere 1 Centro", "Sensor model": "Milesight EM300-TH", "Time reslution": "10 min", "Measuring start date": "2024-02-05T00:00:00", "euclidean": null, "softdtw": null, "kshape": null, "hierarchical": null }, "geometry": { "type": "Point", "coordinates": [ 11.8731923215091, 45.407819567081702 ] } },
{ "type": "Feature", "properties": { "name": "T88", "sensor_id": "T88", "Latitude": "45.4080123450803", "Longitude": "11.8720178492367", "District": "Quartiere 1 Centro", "Sensor model": "Milesight EM300-TH", "Time reslution": "10 min", "Measuring start date": "2024-02-06T00:00:00", "euclidean": 1.0, "softdtw": 0.0, "kshape": 3.0, "hierarchical": 1.0 }, "geometry": { "type": "Point", "coordinates": [ 11.8720178492367, 45.408012345080301 ] } },
{ "type": "Feature", "properties": { "name": "T89", "sensor_id": "T89", "Latitude": "45.3813518960281", "Longitude": "11.8750705383718", "District": "Quartiere 4 Sud-Est", "Sensor model": "Milesight EM300-TH", "Time reslution": "10 min", "Measuring start date": "2024-02-05T00:00:00", "euclidean": null, "softdtw": null, "kshape": null, "hierarchical": null }, "geometry": { "type": "Point", "coordinates": [ 11.8750705383718, 45.3813518960281 ] } },
{ "type": "Feature", "properties": { "name": "T9", "sensor_id": "T9", "Latitude": "45.4420947433777", "Longitude": "11.8905462138355", "District": "Quartiere 2 Nord", "Sensor model": "Milesight EM300-TH", "Time reslution": "10 min", "Measuring start date": "2024-02-06T00:00:00", "euclidean": null, "softdtw": null, "kshape": null, "hierarchical": null }, "geometry": { "type": "Point", "coordinates": [ 11.890546213835499, 45.442094743377702 ] } },
{ "type": "Feature", "properties": { "name": "T90", "sensor_id": "T90", "Latitude": "45.3856428831695", "Longitude": "11.8772233463824", "District": "Quartiere 4 Sud-Est", "Sensor model": "Milesight EM300-TH", "Time reslution": "10 min", "Measuring start date": "2024-02-05T00:00:00", "euclidean": 0.0, "softdtw": 1.0, "kshape": 3.0, "hierarchical": 3.0 }, "geometry": { "type": "Point", "coordinates": [ 11.877223346382401, 45.385642883169503 ] } },
{ "type": "Feature", "properties": { "name": "T91", "sensor_id": "T91", "Latitude": "45.4163844878132", "Longitude": "11.8814729712903", "District": "Quartiere 1 Centro", "Sensor model": "Milesight EM300-TH", "Time reslution": "10 min", "Measuring start date": "2024-02-05T00:00:00", "euclidean": null, "softdtw": null, "kshape": null, "hierarchical": null }, "geometry": { "type": "Point", "coordinates": [ 11.8814729712903, 45.416384487813197 ] } },
{ "type": "Feature", "properties": { "name": "T92", "sensor_id": "T92", "Latitude": "45.3803788", "Longitude": "11.8843974", "District": "Quartiere 4 Sud-Est", "Sensor model": "Milesight EM300-TH", "Time reslution": "10 min", "Measuring start date": "2024-02-05T00:00:00", "euclidean": 0.0, "softdtw": 1.0, "kshape": 3.0, "hierarchical": 3.0 }, "geometry": { "type": "Point", "coordinates": [ 11.8843974, 45.3803788 ] } },
{ "type": "Feature", "properties": { "name": "T93", "sensor_id": "T93", "Latitude": "45.4164595584004", "Longitude": "11.8672586046159", "District": "Quartiere 1 Centro", "Sensor model": "Milesight EM300-TH", "Time reslution": "10 min", "Measuring start date": "2024-02-06T00:00:00", "euclidean": 1.0, "softdtw": 2.0, "kshape": 3.0, "hierarchical": 1.0 }, "geometry": { "type": "Point", "coordinates": [ 11.8672586046159, 45.416459558400398 ] } },
{ "type": "Feature", "properties": { "name": "T94", "sensor_id": "T94", "Latitude": "45.4072005", "Longitude": "11.8782417", "District": "Quartiere 1 Centro", "Sensor model": "Milesight EM300-TH", "Time reslution": "10 min", "Measuring start date": "2024-02-06T00:00:00", "euclidean": 1.0, "softdtw": 0.0, "kshape": 3.0, "hierarchical": 1.0 }, "geometry": { "type": "Point", "coordinates": [ 11.8782417, 45.4072005 ] } },
{ "type": "Feature", "properties": { "name": "T95", "sensor_id": "T95", "Latitude": "45.3993169020045", "Longitude": "11.8762812204659", "District": "Quartiere 1 Centro", "Sensor model": "Milesight EM300-TH", "Time reslution": "10 min", "Measuring start date": "2024-02-06T00:00:00", "euclidean": 1.0, "softdtw": 2.0, "kshape": 3.0, "hierarchical": 2.0 }, "geometry": { "type": "Point", "coordinates": [ 11.8762812204659, 45.3993169020045 ] } },
{ "type": "Feature", "properties": { "name": "T96", "sensor_id": "T96", "Latitude": "45.4111582", "Longitude": "11.8786289", "District": "Quartiere 1 Centro", "Sensor model": "Milesight EM300-TH", "Time reslution": "10 min", "Measuring start date": "2024-02-06T00:00:00", "euclidean": 1.0, "softdtw": 0.0, "kshape": 3.0, "hierarchical": 2.0 }, "geometry": { "type": "Point", "coordinates": [ 11.8786289, 45.4111582 ] } },
{ "type": "Feature", "properties": { "name": "T97", "sensor_id": "T97", "Latitude": "45.4143804593629", "Longitude": "11.8791485019028", "District": "Quartiere 1 Centro", "Sensor model": "Milesight EM300-TH", "Time reslution": "10 min", "Measuring start date": "2024-02-06T00:00:00", "euclidean": 1.0, "softdtw": 0.0, "kshape": 3.0, "hierarchical": 1.0 }, "geometry": { "type": "Point", "coordinates": [ 11.879148501902799, 45.414380459362903 ] } },
{ "type": "Feature", "properties": { "name": "T98", "sensor_id": "T98", "Latitude": "45.4129395962531", "Longitude": "11.885396707803", "District": "Quartiere 1 Centro", "Sensor model": "Milesight EM300-TH", "Time reslution": "10 min", "Measuring start date": "2024-02-06T00:00:00", "euclidean": 1.0, "softdtw": 2.0, "kshape": 0.0, "hierarchical": 1.0 }, "geometry": { "type": "Point", "coordinates": [ 11.885396707803, 45.412939596253104 ] } },
{ "type": "Feature", "properties": { "name": "T99", "sensor_id": "T99", "Latitude": "45.4148577", "Longitude": "11.8848875", "District": "Quartiere 1 Centro", "Sensor model": "Milesight EM300-TH", "Time reslution": "10 min", "Measuring start date": "2024-02-06T00:00:00", "euclidean": 3.0, "softdtw": 3.0, "kshape": 2.0, "hierarchical": 0.0 }, "geometry": { "type": "Point", "coordinates": [ 11.8848875, 45.4148577 ] } }
]
}
